STARLINK-36852          
1 67933U 26037B   26077.25002315 -.01904428  00000+0 -22588-1 0  9991
2 67933  42.9994 146.4746 0001501 268.8994  72.8138 15.63525043  4571
STARLINK-36861          
1 67934U 26037C   26076.21664883 -.00590592  00000+0 -30935-2 0  9999
2 67934  42.9980 152.4288 0001539 274.3291  85.7405 15.81347431  4447
STARLINK-36860          
1 67935U 26037D   26077.25002315 -.01939410  00000+0 -18370-1 0  9996
2 67935  42.9990 146.2651 0001205 280.7673 144.6530 15.69096957  4577
STARLINK-36848          
1 67936U 26037E   26077.25002315 -.01910301  00000+0 -20019-1 0  9998
2 67936  42.9996 146.3191 0001428 276.7135 127.0045 15.66603192  4577
STARLINK-36370          
1 67937U 26037F   26077.25002315 -.01954275  00000+0 -17847-1 0  9992
2 67937  42.9991 146.2318 0001484 281.0585 158.1534 15.69988112  4572
STARLINK-36371          
1 67938U 26037G   26077.25002315 -.01918428  00000+0 -15137-1 0  9993
2 67938  42.9991 146.1243 0001072 283.4578 198.1387 15.73881410  4578
STARLINK-36246          
1 67939U 26037H   26077.25002315 -.01918977  00000+0 -19463-1 0  9999
2 67939  42.9993 146.2724 0001395 280.4841 142.1898 15.67414329  4484
STARLINK-36907          
1 67940U 26037J   26076.90508803  .00482279  00000+0  21717-2 0  9999
2 67940  42.9984 148.1227 0002089 303.2284  56.8387 15.81976946  4557
STARLINK-36927          
1 67941U 26037K   26077.25002315 -.01919555  00000+0 -13792-1 0  9994
2 67941  42.9989 146.0275 0000914 270.6712 249.5245 15.76003639  4571
STARLINK-36914          
1 67942U 26037L   26077.22219592  .00529455  00000+0  23498-2 0  9997
2 67942  42.9979 146.2001 0001371 261.7124  98.3593 15.82166214  4602
STARLINK-36851          
1 67943U 26037M   26077.25002315 -.01921004  00000+0 -13203-1 0  9995
2 67943  42.9990 146.0479 0001169 273.0339 239.0530 15.76991365  4579
STARLINK-36892          
1 67944U 26037N   26077.25002315 -.01924614  00000+0 -12759-1 0  9991
2 67944  42.9988 146.0191 0000998 267.5318 256.3152 15.77797376  4571
STARLINK-36908          
1 67945U 26037P   26076.90289904  .00440150  00000+0  20123-2 0  9994
2 67945  42.9985 148.1053 0001339 333.9537  26.1268 15.81758378  4553
STARLINK-36909          
1 67946U 26037Q   26076.90203718  .00525285  00000+0  23294-2 0  9999
2 67946  42.9983 148.0978 0001902 292.0212  68.0457 15.82194587  4550
STARLINK-36920          
1 67947U 26037R   26076.90466770  .00314164  00000+0  16750-2 0  9990
2 67947  42.9989 148.1192 0014786 343.1783  16.8596 15.78600315  4552
STARLINK-36873          
1 67948U 26037S   26077.25002315 -.01953125  00000+0 -15892-1 0  9995
2 67948  42.9992 146.0389 0000967 273.7545 241.6735 15.72696721  4577
